{
  "norad_id": 47281,
  "name": "ONEWEB-0135",
  "history": [
    {
      "epoch": "2026-03-28T17:49:30.099936Z",
      "apogee_km": 1215.363768872583,
      "perigee_km": 1212.065868442558,
      "latitude_deg": 2.9910036109131588e-05,
      "longitude_deg": -86.8884990521331,
      "height_km": 1216.363257410798,
      "semi_major_axis_km": 7591.85181865757,
      "eccentricity": 0.0002172,
      "inclination_deg": 87.901,
      "raan_deg": 6.6457,
      "arg_perigee_deg": 81.6773,
      "mean_anomaly_deg": 278.4602,
      "mean_motion_rev_day": 13.12445197
    },
    {
      "epoch": "2026-03-29T04:48:11.294208Z",
      "apogee_km": 1215.3594933004424,
      "perigee_km": 1212.06614884806,
      "latitude_deg": -3.5730794118017714e-05,
      "longitude_deg": 107.89840081808215,
      "height_km": 1216.3612820421956,
      "semi_major_axis_km": 7591.849821074251,
      "eccentricity": 0.0002169,
      "inclination_deg": 87.901,
      "raan_deg": 6.5551,
      "arg_perigee_deg": 81.6659,
      "mean_anomaly_deg": 278.4715,
      "mean_motion_rev_day": 13.12445715
    },
    {
      "epoch": "2026-03-30T04:35:20.785920Z",
      "apogee_km": 1215.3550960782177,
      "perigee_km": 1212.0875602537762,
      "latitude_deg": -1.8370413575034814e-06,
      "longitude_deg": 109.93539880787753,
      "height_km": 1216.354060330426,
      "semi_major_axis_km": 7591.858328165997,
      "eccentricity": 0.0002152,
      "inclination_deg": 87.901,
      "raan_deg": 6.3585,
      "arg_perigee_deg": 81.0407,
      "mean_anomaly_deg": 279.0965,
      "mean_motion_rev_day": 13.12443509
    }
  ]
}